OBJECT_NAME,OBJECT_ID,EPOCH,MEAN_MOTION,ECCENTRICITY,INCLINATION,RA_OF_ASC_NODE,ARG_OF_PERICENTER,MEAN_ANOMALY,EPHEMERIS_TYPE,CLASSIFICATION_TYPE,NORAD_CAT_ID,ELEMENT_SET_NO,REV_AT_EPOCH,BSTAR,MEAN_MOTION_DOT,MEAN_MOTION_DDOT
INTELSAT 902 (IS-902),2001-039A,2026-07-22T11:04:59.012832,1.00272438,.00042754,6.2026,71.3465,50.1458,294.8685,0,U,26900,999,9104,0,-.285E-5,0
INTELSAT 904 (IS-904),2002-007A,2026-07-22T01:08:38.666400,1.00273714,.00052289,7.0045,68.7623,28.9259,187.7973,0,U,27380,999,5211,0,-.228E-5,0
DIRECTV 5 (TEMPO 1),2002-023A,2026-07-22T08:28:38.804160,1.00272105,.00031974,4.9651,74.8690,43.6130,198.6680,0,U,27426,999,8847,0,-.58E-6,0
INTELSAT 905 (IS-905),2002-027A,2026-07-22T13:27:59.079744,1.00272679,.0003581,6.8397,69.3690,50.9633,244.7612,0,U,27438,999,5171,0,.91E-6,0
GALAXY 3C (G-3C),2002-030A,2026-07-22T09:00:38.605248,1.00271453,.00018387,3.8228,77.5240,29.2931,233.6198,0,U,27445,999,4684,0,-.153E-5,0
INTELSAT 906 (IS-906),2002-041A,2026-07-22T04:46:49.591776,1.00271321,.00034451,5.8877,72.4845,31.3733,331.9511,0,U,27513,999,8738,0,.11E-6,0
GALAXY 13 (HORIZONS-1),2003-044A,2026-07-22T12:08:38.715360,1.00274562,.00020711,1.5072,83.4010,43.7835,205.2425,0,U,27954,999,4692,0,.135E-5,0
INTELSAT 10-02,2004-022A,2026-07-22T07:53:44.566656,1.00274136,.00003969,0.0589,256.1997,250.6356,270.6769,0,U,28358,999,8090,0,-.7E-7,0
DIRECTV 8,2005-019A,2026-07-22T10:45:23.391360,1.00273309,.00032162,0.0144,78.4596,47.9335,216.0994,0,U,28659,999,7742,0,.4E-7,0
GALAXY 28 (G-28),2005-022A,2026-07-22T11:11:35.879136,1.00271783,.00023209,3.3861,78.4939,40.7127,321.8074,0,U,28702,999,5233,0,-.2E-5,0
GALAXY 16 (G-16),2006-023A,2026-07-22T10:51:07.841376,1.00272761,.00028037,0.0261,130.0905,351.3460,242.5340,0,U,29236,999,7332,0,-.123E-5,0
DIRECTV 9S,2006-043A,2026-07-22T10:50:30.399936,1.00271894,.00051956,2.5093,80.4785,34.7857,246.3550,0,U,29494,999,5173,0,-.112E-5,0
GALAXY 17 (G-17),2007-016B,2026-07-22T10:55:07.457952,1.00272410,.00035396,3.0581,79.4570,33.9920,265.5142,0,U,31307,999,7015,0,-.205E-5,0
INTELSAT 11 (IS-11),2007-044B,2026-07-22T07:45:52.820064,0.99052974,.00045518,3.6544,78.2422,98.9381,210.6760,0,U,32253,999,6879,0,-.24E-5,0
HORIZONS-2,2007-063B,2026-07-22T10:58:14.659104,1.00272143,.00036859,2.6905,80.1945,21.1586,289.6122,0,U,32388,999,6816,0,-.252E-5,0
DIRECTV 11,2008-013A,2026-07-22T10:05:38.676192,1.00272465,.0000226,0.0113,273.8683,175.5459,262.9682,0,U,32729,999,4594,0,-.122E-5,0
GALAXY 18 (G-18),2008-024A,2026-07-22T10:44:15.997632,1.00273455,.00031352,0.0184,50.0794,76.5669,211.6284,0,U,32951,999,4620,0,0,0
GALAXY 19 (G-19),2008-045A,2026-07-22T10:51:37.792800,1.00271568,.00026944,0.0620,252.2612,240.8694,232.9663,0,U,33376,999,6525,0,-.135E-5,0
FM-5,2009-034A,2026-07-22T09:57:38.490912,1.00269908,.00008339,0.0416,259.0521,127.9469,336.3902,0,U,35493,999,4699,0,-.196E-5,0
INTELSAT 14 (IS-14),2009-064A,2026-07-22T11:06:28.868832,1.00271355,.00025523,0.0181,51.7816,71.7168,298.3234,0,U,36097,999,6095,0,-.27E-5,0
INTELSAT 15 (IS-15),2009-067A,2026-07-22T10:00:54.988704,1.00272250,.00023768,0.0153,55.5822,64.1162,55.8434,0,U,36106,999,4158,0,-.182E-5,0
DIRECTV 12,2009-075A,2026-07-22T10:50:00.447648,1.00271889,.00002274,0.0075,208.1312,356.2874,155.5562,0,U,36131,999,4690,0,-.1E-5,0
INTELSAT 16 (IS-16),2010-006A,2026-07-22T10:57:37.219392,1.00280786,.00023344,0.0105,342.8048,145.6367,259.9661,0,U,36397,999,6000,0,-.242E-5,0
XM-5,2010-053A,2026-07-22T11:58:14.688768,1.00270768,.00012978,0.0629,264.2935,309.5611,150.7458,0,U,37185,999,5783,0,-.19E-6,0
INTELSAT 17 (IS-17),2010-065B,2026-07-22T03:04:50.483712,1.00273086,.00025844,0.0149,100.2075,34.9537,276.9355,0,U,37238,999,5359,0,.1E-7,0
INTELSAT 28 (IS-28),2011-016A,2026-07-22T11:10:13.511424,1.00271263,.00040046,1.8949,82.1948,43.4282,310.4316,0,U,37392,999,5363,0,-.223E-5,0
INTELSAT 18 (IS-18),2011-056A,2026-07-22T12:47:38.600160,1.00271116,.00019699,0.0321,262.0410,229.5420,180.5916,0,U,37834,999,5416,0,.56E-6,0
INTELSAT 22 (IS-22),2012-011A,2026-07-22T11:39:55.662624,1.00271557,.00020358,0.0079,23.2868,122.0850,41.9370,0,U,38098,999,754,0,-.55E-6,0
INTELSAT 19 (IS-19),2012-030A,2026-07-22T12:00:38.512800,1.00272938,.00030669,0.0158,45.3721,73.8274,167.2012,0,U,38356,999,5080,0,-.53E-6,0
INTELSAT 20 (IS-20),2012-043A,2026-07-22T11:38:48.269760,1.00271866,.00013271,0.0143,77.4647,106.1118,359.8560,0,U,38740,999,5110,0,-.21E-6,0
INTELSAT 21 (IS-21),2012-045A,2026-07-22T11:02:44.227968,1.00271007,.00018874,0.0367,255.2041,235.8390,276.8469,0,U,38749,999,5087,0,-.281E-5,0
