{"epoch":1784762836,"count":18316,"objects":[{"id":"26900","name":"INTELSAT 902","type":"PAYLOAD","l1":"1 26900U 01039A   26203.46179413 -.00000285  00000-0  00000-0 0  9994","l2":"2 26900   6.2026  71.3465 0004275  50.1458 294.8685  1.00272438 91045"},{"id":"27380","name":"INTELSAT 904","type":"PAYLOAD","l1":"1 27380U 02007A   26203.04766975 -.00000228  00000-0  00000-0 0  9999","l2":"2 27380   7.0045  68.7623 0005229  28.9259 187.7973  1.00273714 52119"},{"id":"27426","name":"DIRECTV 5 (TEMPO 1)","type":"PAYLOAD","l1":"1 27426U 02023A   26203.35322690 -.00000058  00000-0  00000-0 0  9995","l2":"2 27426   4.9651  74.8690 0003197  43.6130 198.6680  1.00272105 88472"},{"id":"27438","name":"INTELSAT 905","type":"PAYLOAD","l1":"1 27438U 02027A   26203.56110046  .00000091  00000-0  00000-0 0  9991","l2":"2 27438   6.8397  69.3690 0003581  50.9633 244.7612  1.00272679 51719"},{"id":"27445","name":"GALAXY 3C","type":"PAYLOAD","l1":"1 27445U 02030A   26203.37544682 -.00000153  00000-0  00000-0 0  9999","l2":"2 27445   3.8228  77.5240 0001839  29.2931 233.6198  1.00271453 46846"},{"id":"27513","name":"INTELSAT 906","type":"PAYLOAD","l1":"1 27513U 02041A   26203.19918509  .00000011  00000-0  00000-0 0  9992","l2":"2 27513   5.8877  72.4845 0003445  31.3733 331.9511  1.00271321 87387"},{"id":"27954","name":"HORIZONS 1 (GALAXY 13)","type":"PAYLOAD","l1":"1 27954U 03044A   26203.50600365  .00000135  00000-0  00000-0 0  9995","l2":"2 27954   1.5072  83.4010 0002071  43.7835 205.2425  1.00274562 46928"},{"id":"28358","name":"INTELSAT 1002","type":"PAYLOAD","l1":"1 28358U 04022A   26203.32898804 -.00000007  00000-0  00000-0 0  9997","l2":"2 28358   0.0589 256.1997 0000397 250.6356 270.6769  1.00274136 80903"},{"id":"28659","name":"DIRECTV 8","type":"PAYLOAD","l1":"1 28659U 05019A   26203.44818740  .00000004  00000-0  00000-0 0  9998","l2":"2 28659   0.0144  78.4596 0003216  47.9335 216.0994  1.00273309 77429"},{"id":"28702","name":"GALAXY 28 (IA 8)","type":"PAYLOAD","l1":"1 28702U 05022A   26203.46638749 -.00000200  00000-0  00000-0 0  9991","l2":"2 28702   3.3861  78.4939 0002321  40.7127 321.8074  1.00271783 52338"},{"id":"29236","name":"GALAXY 16","type":"PAYLOAD","l1":"1 29236U 06023A   26203.45217409 -.00000123  00000-0  00000-0 0  9995","l2":"2 29236   0.0261 130.0905 0002804 351.3460 242.5340  1.00272761 73328"},{"id":"29494","name":"DIRECTV 9S","type":"PAYLOAD","l1":"1 29494U 06043A   26203.45174074 -.00000112  00000-0  00000-0 0  9991","l2":"2 29494   2.5093  80.4785 0005196  34.7857 246.3550  1.00271894 51739"},{"id":"31307","name":"GALAXY 17","type":"PAYLOAD","l1":"1 31307U 07016B   26203.45494743 -.00000205  00000-0  00000-0 0  9999","l2":"2 31307   3.0581  79.4570 0003540  33.9920 265.5142  1.00272410 70158"},{"id":"32253","name":"INTELSAT 11 (PAS 11)","type":"PAYLOAD","l1":"1 32253U 07044B   26203.32352801 -.00000240  00000-0  00000-0 0  9994","l2":"2 32253   3.6544  78.2422 0004552  98.9381 210.6760  0.99052974 68795"},{"id":"32388","name":"HORIZONS 2","type":"PAYLOAD","l1":"1 32388U 07063B   26203.45711411 -.00000252  00000-0  00000-0 0  9997","l2":"2 32388   2.6905  80.1945 0003686  21.1586 289.6122  1.00272143 68162"},{"id":"32729","name":"DIRECTV 11","type":"PAYLOAD","l1":"1 32729U 08013A   26203.42058653 -.00000122  00000-0  00000-0 0  9997","l2":"2 32729   0.0113 273.8683 0000226 175.5459 262.9682  1.00272465 45947"},{"id":"32951","name":"GALAXY 18","type":"PAYLOAD","l1":"1 32951U 08024A   26203.44740738  .00000000  00000-0  00000-0 0  9994","l2":"2 32951   0.0184  50.0794 0003135  76.5669 211.6284  1.00273455 46204"},{"id":"33376","name":"GALAXY 19","type":"PAYLOAD","l1":"1 33376U 08045A   26203.45252075 -.00000135  00000-0  00000-0 0  9992","l2":"2 33376   0.0620 252.2612 0002694 240.8694 232.9663  1.00271568 65255"},{"id":"35493","name":"SIRIUS FM-5","type":"PAYLOAD","l1":"1 35493U 09034A   26203.41502883 -.00000196  00000-0  00000-0 0  9991","l2":"2 35493   0.0416 259.0521 0000834 127.9469 336.3902  1.00269908 46993"},{"id":"36097","name":"INTELSAT 14","type":"PAYLOAD","l1":"1 36097U 09064A   26203.46283413 -.00000270  00000-0  00000-0 0  9998","l2":"2 36097   0.0181  51.7816 0002552  71.7168 298.3234  1.00271355 60954"},{"id":"36106","name":"INTELSAT 15","type":"PAYLOAD","l1":"1 36106U 09067A   26203.41730311 -.00000182  00000-0  00000-0 0  9993","l2":"2 36106   0.0153  55.5822 0002377  64.1162  55.8434  1.00272250 41589"},{"id":"36131","name":"DIRECTV 12","type":"PAYLOAD","l1":"1 36131U 09075A   26203.45139407 -.00000100  00000-0  00000-0 0  9993","l2":"2 36131   0.0075 208.1312 0000227 356.2874 155.5562  1.00271889 46905"},{"id":"36397","name":"INTELSAT 16","type":"PAYLOAD","l1":"1 36397U 10006A   26203.45668078 -.00000242  00000-0  00000-0 0  9991","l2":"2 36397   0.0105 342.8048 0002334 145.6367 259.9661  1.00280786 60005"},{"id":"37185","name":"XM-5","type":"PAYLOAD","l1":"1 37185U 10053A   26203.49878112 -.00000019  00000-0  00000-0 0  9997","l2":"2 37185   0.0629 264.2935 0001298 309.5611 150.7458  1.00270768 57833"},{"id":"37238","name":"INTELSAT 17","type":"PAYLOAD","l1":"1 37238U 10065B   26203.12836208  .00000001  00000-0  00000-0 0  9999","l2":"2 37238   0.0149 100.2075 0002584  34.9537 276.9355  1.00273086 53590"},{"id":"37392","name":"INTELSAT NEW DAWN","type":"PAYLOAD","l1":"1 37392U 11016A   26203.46543416 -.00000223  00000-0  00000-0 0  9997","l2":"2 37392   1.8949  82.1948 0004005  43.4282 310.4316  1.00271263 53638"},{"id":"37834","name":"INTELSAT 18","type":"PAYLOAD","l1":"1 37834U 11056A   26203.53308565  .00000056  00000-0  00000-0 0  9997","l2":"2 37834   0.0321 262.0410 0001970 229.5420 180.5916  1.00271116 54164"},{"id":"38098","name":"INTELSAT 22","type":"PAYLOAD","l1":"1 38098U 12011A   26203.48606091 -.00000055  00000-0  00000-0 0  9991","l2":"2 38098   0.0079  23.2868 0002036 122.0850  41.9370  1.00271557  7542"},{"id":"38356","name":"INTELSAT 19","type":"PAYLOAD","l1":"1 38356U 12030A   26203.50044575 -.00000053  00000-0  00000-0 0  9993","l2":"2 38356   0.0158  45.3721 0003067  73.8274 167.2012  1.00272938 50804"},{"id":"38740","name":"INTELSAT 20","type":"PAYLOAD","l1":"1 38740U 12043A   26203.48528090 -.00000021  00000-0  00000-0 0  9995","l2":"2 38740   0.0143  77.4647 0001327 106.1118 359.8560  1.00271866 51102"},{"id":"38749","name":"INTELSAT 21","type":"PAYLOAD","l1":"1 38749U 12045A   26203.46023412 -.00000281  00000-0  00000-0 0  9990","l2":"2 38749   0.0367 255.2041 0001887 235.8390 276.8469  1.00271007 50872"}]}